$$SOE
2460154.500000000, A.D. 2023-Jul-29 00:00:00.0000, -2.734213157307851E+08, 2.191623386804244E+08, -8.906268722642037E+07,
2460161.500000000, A.D. 2023-Aug-05 00:00:00.0000, -2.809361106049788E+08, 2.100042220455080E+08, -8.922363016385138E+07,
2460168.500000000, A.D. 2023-Aug-12 00:00:00.0000, -2.881632948723525E+08, 2.006310621520918E+08, -8.929321205737773E+07,
2460175.500000000, A.D. 2023-Aug-19 00:00:00.0000, -2.950964029889618E+08, 1.910531025141372E+08, -8.927165019814461E+07,
2460182.500000000, A.D. 2023-Aug-26 00:00:00.0000, -3.017293509123031E+08, 1.812807572644869E+08, -8.915926594632867E+07,
2460189.500000000, A.D. 2023-Sep-02 00:00:00.0000, -3.080564402069128E+08, 1.713245940628605E+08, -8.895648298912543E+07,
2460196.500000000, A.D. 2023-Sep-09 00:00:00.0000, -3.140723612724794E+08, 1.611953169371487E+08, -8.866382543966657E+07,
2460203.500000000, A.D. 2023-Sep-16 00:00:00.0000, -3.197721955417821E+08, 1.509037490503347E+08, -8.828191580775136E+07,
2460210.500000000, A.D. 2023-Sep-23 00:00:00.0000, -3.251514162506317E+08, 1.404608157277267E+08, -8.781147286795159E+07,
2460217.500000000, A.D. 2023-Sep-30 00:00:00.0000, -3.302058881410309E+08, 1.298775289800198E+08, -8.725330930760200E+07,
2460224.500000000, A.D. 2023-Oct-07 00:00:00.0000, -3.349318684777304E+08, 1.191649730216327E+08, -8.660832899542868E+07,
2460231.500000000, A.D. 2023-Oct-14 00:00:00.0000, -3.393260083679481E+08, 1.083342875137410E+08, -8.587752425033827E+07,
2460238.500000000, A.D. 2023-Oct-21 00:00:00.0000, -3.433853511817754E+08, 9.739665017461269E+07, -8.506197328569658E+07,
2460245.500000000, A.D. 2023-Oct-28 00:00:00.0000, -3.471073295249443E+08, 8.636326104884170E+07, -8.416283752238744E+07,
2460252.500000000, A.D. 2023-Nov-04 00:00:00.0000, -3.504897620488139E+08, 7.524532769387440E+07, -8.318135873104113E+07,
2460259.500000000, A.D. 2023-Nov-11 00:00:00.0000, -3.535308499565537E+08, 6.405405071340413E+07, -8.211885608150288E+07,
2460266.500000000, A.D. 2023-Nov-18 00:00:00.0000, -3.562291730213406E+08, 5.280060959983502E+07, -8.097672313605089E+07,
2460273.500000000, A.D. 2023-Nov-25 00:00:00.0000, -3.585836850794616E+08, 4.149614893071763E+07, -7.975642480164041E+07,
2460280.500000000, A.D. 2023-Dec-02 00:00:00.0000, -3.605937090070197E+08, 3.015176492702715E+07, -7.845949425513631E+07,
2460287.500000000, A.D. 2023-Dec-09 00:00:00.0000, -3.622589311401209E+08, 1.877849233095581E+07, -7.708752986391377E+07,
2460294.500000000, A.D. 2023-Dec-16 00:00:00.0000, -3.635793948886929E+08, 7.387291630439945E+06, -7.564219213714142E+07,
2460301.500000000, A.D. 2023-Dec-23 00:00:00.0000, -3.645554932317665E+08, -4.010962669271622E+06, -7.412520069231932E+07,
2460308.500000000, A.D. 2023-Dec-30 00:00:00.0000, -3.651879614682288E+08, -1.540549166780207E+07, -7.253833103555998E+07,
2460315.500000000, A.D. 2024-Jan-06 00:00:00.0000, -3.654778720286692E+08, -2.678562194087521E+07, -7.088341119256678E+07,
2460322.500000000, A.D. 2024-Jan-13 00:00:00.0000, -3.654266282096830E+08, -3.814079746533006E+07, -6.916231863593921E+07,
2460329.500000000, A.D. 2024-Jan-20 00:00:00.0000, -3.650359556388352E+08, -4.946059051371433E+07, -6.737697737516546E+07,
2460336.500000000, A.D. 2024-Jan-27 00:00:00.0000, -3.643078935303008E+08, -6.073471087140281E+07, -6.552935497676630E+07,
2460343.500000000, A.D. 2024-Feb-03 00:00:00.0000, -3.632447861953639E+08, -7.195301433213101E+07, -6.362145956205894E+07,
2460350.500000000, A.D. 2024-Feb-10 00:00:00.0000, -3.618492745678197E+08, -8.310551076813596E+07, -6.165533684093576E+07,
2460357.500000000, A.D. 2024-Feb-17 00:00:00.0000, -3.601242876391996E+08, -9.418237177098811E+07, -5.963306720025054E+07,
2460364.500000000, A.D. 2024-Feb-24 00:00:00.0000, -3.580730337970117E+08, -1.051739378543409E+08, -5.755676285316706E+07,
2460371.500000000, A.D. 2024-Mar-02 00:00:00.0000, -3.556989920631377E+08, -1.160707252600163E+08, -5.542856505813252E+07,
2460378.500000000, A.D. 2024-Mar-09 00:00:00.0000, -3.530059031187500E+08, -1.268634324413894E+08, -5.325064142837530E+07,
2460385.500000000, A.D. 2024-Mar-16 00:00:00.0000, -3.499977597445604E+08, -1.375429460392030E+08, -5.102518335485116E+07,
2460392.500000000, A.D. 2024-Mar-23 00:00:00.0000, -3.466787968024853E+08, -1.481003452537969E+08, -4.875440344485570E+07,
2460399.500000000, A.D. 2024-Mar-30 00:00:00.0000, -3.430534830204847E+08, -1.585269046546045E+08, -4.644053277491034E+07,
2460406.500000000, A.D. 2024-Apr-06 00:00:00.0000, -3.391265143453742E+08, -1.688140988103184E+08, -4.408581825880095E+07,
2460413.500000000, A.D. 2024-Apr-13 00:00:00.0000, -3.349028053337862E+08, -1.789536079184290E+08, -4.169252038992545E+07,
2460420.500000000, A.D. 2024-Apr-20 00:00:00.0000, -3.303874795503798E+08, -1.889373217702101E+08, -3.926291105196821E+07,
2460427.500000000, A.D. 2024-Apr-27 00:00:00.0000, -3.255858605017946E+08, -1.987573426260503E+08, -3.679927130384025E+07,
2460434.500000000, A.D. 2024-May-04 00:00:00.0000, -3.205034630283514E+08, -2.084059877216021E+08, -3.430388920435145E+07,
2460441.500000000, A.D. 2024-May-11 00:00:00.0000, -3.151459849267350E+08, -2.178757915260953E+08, -3.177905770765157E+07,
2460448.500000000, A.D. 2024-May-18 00:00:00.0000, -3.095192987346417E+08, -2.271595077505927E+08, -2.922707263608103E+07,
2460455.500000000, A.D. 2024-May-25 00:00:00.0000, -3.036294436652452E+08, -2.362501111315425E+08, -2.665023073358716E+07,
2460462.500000000, A.D. 2024-Jun-01 00:00:00.0000, -2.974826176429723E+08, -2.451407990642964E+08, -2.405082780956480E+07,
2460469.500000000, A.D. 2024-Jun-08 00:00:00.0000, -2.910851692041116E+08, -2.538249931259404E+08, -2.143115699669237E+07,
2460476.500000000, A.D. 2024-Jun-15 00:00:00.0000, -2.844435888708879E+08, -2.622963399578317E+08, -1.879350711342850E+07,
2460483.500000000, A.D. 2024-Jun-22 00:00:00.0000, -2.775645010099936E+08, -2.705487103472217E+08, -1.614016094108751E+07,
2460490.500000000, A.D. 2024-Jun-29 00:00:00.0000, -2.704546583006220E+08, -2.785761983435467E+08, -1.347339336783440E+07,
2460497.500000000, A.D. 2024-Jul-06 00:00:00.0000, -2.631209361706096E+08, -2.863731228972872E+08, -1.079546984254442E+07,
2460504.500000000, A.D. 2024-Jul-13 00:00:00.0000, -2.555703252560336E+08, -2.939340292138705E+08, -8.108645084688172E+06,
2460511.500000000, A.D. 2024-Jul-20 00:00:00.0000, -2.478099238728160E+08, -3.012536886879271E+08, -5.415161771936327E+06,
2460518.500000000, A.D. 2024-Jul-27 00:00:00.0000, -2.398469311566752E+08, -3.083270983899986E+08, -2.717249221443072E+06,
2460525.500000000, A.D. 2024-Aug-03 00:00:00.0000, -2.316886405971970E+08, -3.151494804937259E+08, -1.712211856988072E+04,
2460532.500000000, A.D. 2024-Aug-10 00:00:00.0000, -2.233424337988145E+08, -3.217162816623752E+08, 2.683020692999363E+06,
2460539.500000000, A.D. 2024-Aug-17 00:00:00.0000, -2.148157744208339E+08, -3.280231723878191E+08, 5.380997358920410E+06,
2460546.500000000, A.D. 2024-Aug-24 00:00:00.0000, -2.061162022685782E+08, -3.340660463181089E+08, 8.074644097326532E+06,
2460553.500000000, A.D. 2024-Aug-31 00:00:00.0000, -1.972513274196204E+08, -3.398410196476358E+08, 1.076181620415983E+07,
2460560.500000000, A.D. 2024-Sep-07 00:00:00.0000, -1.882288240188420E+08, -3.453444304544816E+08, 1.344038896001615E+07,
2460567.500000000, A.D. 2024-Sep-14 00:00:00.0000, -1.790564236556656E+08, -3.505728369975747E+08, 1.610825851462725E+07,
2460574.500000000, A.D. 2024-Sep-21 00:00:00.0000, -1.697419103485869E+08, -3.555230145663174E+08, 1.876334297095114E+07,
2460581.500000000, A.D. 2024-Sep-28 00:00:00.0000, -1.602931176171686E+08, -3.601919541150641E+08, 2.140358345117359E+07,
2460588.500000000, A.D. 2024-Oct-05 00:00:00.0000, -1.507179239632185E+08, -3.645768626897104E+08, 2.402694480917116E+07,
2460595.500000000, A.D. 2024-Oct-12 00:00:00.0000, -1.410242471150009E+08, -3.686751626787783E+08, 2.663141626752846E+07,
2460602.500000000, A.D. 2024-Oct-19 00:00:00.0000, -1.312200387810830E+08, -3.724844901725979E+08, 2.921501211976486E+07,
2460609.500000000, A.D. 2024-Oct-26 00:00:00.0000, -1.213132799436803E+08, -3.760026932426948E+08, 3.177577243794733E+07,
2460616.500000000, A.D. 2024-Nov-02 00:00:00.0000, -1.113119764314735E+08, -3.792278302973241E+08, 3.431176375263931E+07,
2460623.500000000, A.D. 2024-Nov-09 00:00:00.0000, -1.012241546708574E+08, -3.821581684980468E+08, 3.682107970036513E+07,
2460630.500000000, A.D. 2024-Nov-16 00:00:00.0000, -9.105785758398329E+07, -3.847921822425653E+08, 3.930184163846843E+07,
2460637.500000000, A.D. 2024-Nov-23 00:00:00.0000, -8.082114058076689E+07, -3.871285517692994E+08, 4.175219922131136E+07,
2460644.500000000, A.D. 2024-Nov-30 00:00:00.0000, -7.052206743073533E+07, -3.891661619314566E+08, 4.417033091754270E+07,
2460651.500000000, A.D. 2024-Dec-07 00:00:00.0000, -6.016870558934966E+07, -3.909041007244789E+08, 4.655444446653736E+07,
2460658.500000000, A.D. 2024-Dec-14 00:00:00.0000, -4.976912166145796E+07, -3.923416563465941E+08, 4.890277743920329E+07,
2460665.500000000, A.D. 2024-Dec-21 00:00:00.0000, -3.933137931395558E+07, -3.934783140355651E+08, 5.121359801602447E+07,
2460672.500000000, A.D. 2024-Dec-28 00:00:00.0000, -2.886353765769081E+07, -3.943137556516330E+08, 5.348520556039220E+07,
2460679.500000000, A.D. 2025-Jan-04 00:00:00.0000, -1.837364749429445E+07, -3.948478596351696E+08, 5.571593094526926E+07,
2460686.500000000, A.D. 2025-Jan-11 00:00:00.0000, -7.869747243222103E+06, -3.950806996835853E+08, 5.790413693825062E+07,
2460693.500000000, A.D. 2025-Jan-18 00:00:00.0000, 2.640140539881767E+06, -3.950125430690885E+08, 6.004821865617990E+07,
2460700.500000000, A.D. 2025-Jan-25 00:00:00.0000, 1.314801230290700E+07, -3.946438490737435E+08, 6.214660403010856E+07,
2460707.500000000, A.D. 2025-Feb-01 00:00:00.0000, 2.364588649057826E+07, -3.939752675731185E+08, 6.419775426236425E+07,
2460714.500000000, A.D. 2025-Feb-08 00:00:00.0000, 3.412580645617411E+07, -3.930076377494552E+08, 6.620016427326821E+07,
$$EOE